ONEWEB-0228             
1 48780U 21045P   24019.54985235 -.00000107  00000+0 -31748-3 0  9991
2 48780  87.8968  74.2822 0001926 102.8573 257.2773 13.15550566128678
